LEMUR-2-CHANUSIAK       
1 43697U 18088H   20138.03317353  .00001005  00000-0  42148-4 0  9992
2 43697  85.0369  98.2530 0017925  48.4234 311.8541 15.21935098 84051
LEMUR-2-ORZULAK         
1 43731U 18096N   20137.94259751  .00001645  00000-0  61497-4 0  9994
2 43731  97.4244 212.7497 0018897 234.2609 125.6874 15.28667818 81634
LEMUR-2-KOBYSZCZE       
1 43732U 18096P   20137.95928111  .00001613  00000-0  60071-4 0  9991
2 43732  97.4250 212.9044 0018989 234.4264 125.5207 15.28810912 81648
LEMUR-2-DULY            
1 43745U 18096AC  20137.77094512  .00001635  00000-0  60713-4 0  9991
2 43745  97.4244 212.6684 0018867 234.6118 125.3359 15.28890582 81622
LEMUR-2-VLADIMIR        
1 43746U 18096AD  20137.99771286  .00001623  00000-0  60207-4 0  9991
2 43746  97.4243 212.9670 0018945 233.9872 125.9612 15.28941315 81681
LEMUR-2-CHRISTINAHOLT   
1 43882U 18111G   20137.81005081  .00000440  00000-0  43430-4 0  9999
2 43882  97.7065  46.3261 0011607 357.6161   2.5003 14.96855947 75771
LEMUR-2-TINYKEV         
1 43883U 18111H   20138.19262509 -.00000189  00000-0 -11332-4 0  9990
2 43883  97.7071  46.7579 0011857 356.1806   3.9323 14.96931444 75836
LEMUR-2-REMY-COLTON     
1 43884U 18111J   20138.18073160  .00000088  00000-0  12699-4 0  9996
2 43884  97.7089  46.8082 0011779 357.1554   2.9599 14.97005897 73837
LEMUR-2-GUSTAVO         
1 43885U 18111K   20137.97711719  .00000281  00000-0  29535-4 0  9994
2 43885  97.7083  46.6136 0011575 357.2751   2.8406 14.96955644 75802
LEMUR-2-ZO              
1 43886U 18111L   20137.81491482  .00000520  00000-0  50161-4 0  9995
2 43886  97.7078  46.5488 0011176 355.5124   4.5996 14.97035237 75786
LEMUR-2-NATALIEMURRAY   
1 43887U 18111M   20137.57573459  .00000454  00000-0  44274-4 0  9998
2 43887  97.7092  46.4039 0011575 356.9507   3.1642 14.97164109 75758
LEMUR-2-SARAHBETTYBOO   
1 43888U 18111N   20138.15836641  .00000855  00000-0  78937-4 0  9997
2 43888  97.7092  47.0690 0011134 353.3812   6.7261 14.97205297 75840
LEMUR-2-DAISY-HARPER    
1 43889U 18111P   20138.00096030  .00000084  00000-0  12307-4 0  9995
2 43889  97.7089  46.9673 0011422 351.3061   8.7961 14.97286049 75810
LEMUR-2-JOHANLORAN      
1 44084U 19018G   20137.40952067  .00002005  00000-0  88183-4 0  9994
2 44084  97.4125 198.6772 0011474 282.3022  77.6930 15.22986919 62525
LEMUR-2-BEAUDACIOUS     
1 44085U 19018H   20137.93765963  .00001018  00000-0  46497-4 0  9995
2 44085  97.4122 199.1919 0011637 281.2218  78.7711 15.22813322 62614
LEMUR-2-ELHAM           
1 44086U 19018J   20138.22470331  .00001969  00000-0  86109-4 0  9990
2 44086  97.4130 199.6005 0011551 280.1378  79.8556 15.23214736 62664
LEMUR-2-VICTOR-ANDREW   
1 44087U 19018K   20138.14869357  .00001968  00000-0  85985-4 0  9992
2 44087  97.4130 199.5489 0011359 281.2636  78.7324 15.23250311 62654
LEMUR-2-LILLYJO         
1 44396U 19038L   20138.06872678  .00001100  00000-0  66427-4 0  9996
2 44396  97.5307  99.7310 0023178 232.7560 127.1556 15.12608695 47836
LEMUR-2-WANLI           
1 44402U 19038S   20138.14858434  .00001121  00000-0  67705-4 0  9990
2 44402  97.5312  99.8034 0023294 232.8593 127.0511 15.12544525 47853
LEMUR-2-MORAG           
1 44403U 19038T   20138.21011621  .00001227  00000-0  73709-4 0  9996
2 44403  97.5347  99.9965 0021989 236.1416 123.7722 15.12604380 47860
LEMUR-2-DUSTINTHEWIND   
1 44405U 19038V   20137.85940950  .00000731  00000-0  45322-4 0  9992
2 44405  97.5302  99.5278 0023102 233.0660 126.8455 15.12682168 47814
LEMUR-2-ALEX-MADDY      
1 44407U 19038X   20138.15906528  .00000637  00000-0  40321-4 0  9990
2 44407  97.5348  99.9078 0022073 236.7529 123.1587 15.12383904 47843
LEMUR-2-EJATTA          
1 44409U 19038Z   20138.16843310  .00001327  00000-0  78859-4 0  9996
2 44409  97.5298  99.8666 0022994 231.4479 128.4692 15.12820278 47866
LEMUR-2-GREGROBINSON    
1 44411U 19038AB  20138.15877532  .00001301  00000-0  78046-4 0  9991
2 44411  97.5355  99.9481 0022102 237.1359 122.7745 15.12536988 47521
LEMUR-2-YNDRD           
1 44413U 19038AD  20138.14916070  .00000574  00000-0  36718-4 0  9994
2 44413  97.5342  99.8917 0021957 236.5024 123.4108 15.12384197 47851
LEMUR-2-JPGSQUARED      
1 44855U 19089D   20138.07929712  .00000363  00000-0  35910-4 0  9998
2 44855  36.9680 284.1004 0004660 178.0787 181.9996 14.98871378 23647
LEMUR-2-HIMOMANDDAD     
1 44860U 19089J   20138.09312811  .00000669  00000-0  60997-4 0  9994
2 44860  36.9683 284.2112 0004782 169.3275 190.7580 14.98732249 23647
LEMUR-2-PAPPY           
1 44861U 19089K   20137.75471623  .00000657  00000-0  59944-4 0  9991
2 44861  36.9687 286.1332 0004925 170.8554 189.2281 14.98784786 23535
